      2.10          N: GNSS NAV DATA                        RINEX VERSION / TYPE
fic2rin                                 11/13/2020 00:18:12 PGM / RUN BY / DATE
                                                            END OF HEADER
24 20 11 12  1 59 44.0 6.555113941431e-06-4.547473508865e-13 0.000000000000e+00
    0.000000000000e+00 9.562500000000e+01 5.094855078307e-09-1.434400477955e+00
    4.872679710388e-06 1.048097026069e-02 1.022592186928e-05 5.153630409241e+03
    3.527840000000e+05 2.738088369370e-07 3.135967370771e+00-8.381903171539e-08
    9.362061091537e-01 1.657812500000e+02 6.947808892128e-01-8.277130489994e-09
    5.203788187237e-10 1.000000000000e+00 2.131000000000e+03 0.000000000000e+00
    2.400000000000e+00 0.000000000000e+00 2.793967723846e-09 0.000000000000e+00
    3.470100000000e+05 4.000000000000e+00
18 20 11 12  2 44 32.0 3.201807849109e-04 4.888534022029e-12 0.000000000000e+00
    3.200000000000e+01 5.496875000000e+01 4.281606917543e-09-1.108423132467e+00
    2.801418304443e-06 1.159781008027e-03 1.022219657898e-05 5.153707342148e+03
    3.554720000000e+05-9.313225746155e-09 8.270400065645e-02-6.146728992462e-08
    9.661305212485e-01 1.857812500000e+02 2.915295330529e+00-7.983903990219e-09
    4.732339978098e-10 1.000000000000e+00 2.131000000000e+03 0.000000000000e+00
    2.400000000000e+00 0.000000000000e+00-8.381903171539e-09 2.880000000000e+02
    3.483000000000e+05 4.000000000000e+00
 6 20 11 12  1 59 44.0-6.267800927162e-07-1.591615728103e-12 0.000000000000e+00
    4.700000000000e+01 6.259375000000e+01 4.025167664390e-09-1.333237573005e+00
    3.242865204811e-06 1.973859034479e-03 9.652227163315e-06 5.153651313782e+03
    3.527840000000e+05 5.960464477539e-08 5.980057861413e-02 4.842877388000e-08
    9.820123739228e-01 2.067187500000e+02-1.163609287100e+00-7.918901282596e-09
    4.825200988989e-10 1.000000000000e+00 2.131000000000e+03 0.000000000000e+00
    2.400000000000e+00 0.000000000000e+00 4.190951585770e-09 4.700000000000e+01
    3.483600000000e+05 4.000000000000e+00
 6 20 11 12  3 59 44.0-6.388872861862e-07-1.591615728103e-12 0.000000000000e+00
    4.800000000000e+01 5.784375000000e+01 4.007309777680e-09-2.832253011049e-01
    3.045424818993e-06 1.974067767151e-03 9.857118129730e-06 5.153651115417e+03
    3.599840000000e+05-6.891787052155e-08 5.974439378238e-02 2.421438694000e-08
    9.820156347672e-01 2.031250000000e+02-1.163430353201e+00-7.860684571922e-09
    3.810873023872e-10 1.000000000000e+00 2.131000000000e+03 0.000000000000e+00
    2.400000000000e+00 0.000000000000e+00 4.190951585770e-09 4.800000000000e+01
    3.528000000000e+05 4.000000000000e+00
24 20 11 12  3 59 44.0 6.551388651133e-06-4.547473508865e-13 0.000000000000e+00
    9.000000000000e+00 9.481250000000e+01 5.129856536258e-09-3.841062417610e-01
    5.034729838371e-06 1.048193534371e-02 1.003406941891e-05 5.153632835388e+03
    3.599840000000e+05 1.266598701477e-07 3.135907203877e+00 1.527369022369e-07
    9.362083547330e-01 1.756250000000e+02 6.946975657878e-01-8.556427838136e-09
    4.478757986819e-10 1.000000000000e+00 2.131000000000e+03 0.000000000000e+00
    2.400000000000e+00 0.000000000000e+00 2.793967723846e-09 9.000000000000e+00
    3.528000000000e+05 4.000000000000e+00
22 20 11 12  3 59 44.0-7.311673834920e-04 5.229594535194e-12 0.000000000000e+00
    3.200000000000e+01-1.281250000000e+00 5.699523122301e-09 4.684348758500e-01
   -2.197921276093e-07 6.720814621076e-03 3.349035978317e-06 5.153676519394e+03
    3.599840000000e+05 2.048909664154e-08 1.014476160181e+00-8.754432201385e-08
    9.322457660867e-01 3.034375000000e+02-1.073228470216e+00-8.953944396296e-09
    1.964367538078e-11 1.000000000000e+00 2.131000000000e+03 0.000000000000e+00
    2.400000000000e+00 0.000000000000e+00-1.816079020500e-08 3.200000000000e+01
    3.528000000000e+05 4.000000000000e+00
 1 20 11 12  4  0  0.0 8.083353750408e-04-3.637978807092e-12 0.000000000000e+00
    3.100000000000e+01 4.725000000000e+01 4.013738616896e-09-7.037174768633e-01
    2.466142177582e-06 1.010286191013e-02 9.993091225624e-06 5.153699035645e+03
    3.600000000000e+05 2.421438694000e-08 6.799263751484e-02 1.713633537292e-07
    9.824980173746e-01 1.986250000000e+02 8.260638642357e-01-7.946759585863e-09
    3.468001599044e-10 1.000000000000e+00 2.131000000000e+03 0.000000000000e+00
    2.400000000000e+00 0.000000000000e+00 5.122274160385e-09 3.100000000000e+01
    3.528000000000e+05 4.000000000000e+00
 3 20 11 12  4  0  0.0-1.564621925354e-06-1.011812855722e-11 0.000000000000e+00
    4.000000000000e+01-1.915625000000e+01 4.773055959796e-09-1.897429985609e+00
   -9.313225746155e-07 3.275319468230e-03 3.596767783165e-06 5.153706026077e+03
    3.600000000000e+05 6.519258022308e-08 1.106997546594e+00-6.146728992462e-08
    9.669277267524e-01 3.151250000000e+02 8.988695505076e-01-8.345347617226e-09
   -1.678641350722e-11 1.000000000000e+00 2.131000000000e+03 0.000000000000e+00
    2.400000000000e+00 0.000000000000e+00 1.862645149231e-09 4.000000000000e+01
    3.528000000000e+05 4.000000000000e+00
 2 20 11 12  4  0  0.0-5.414374172688e-04-4.774847184308e-12 0.000000000000e+00
    8.300000000000e+01 5.331250000000e+01 4.621978238232e-09-4.900048875618e-01
    2.840533852577e-06 2.004302095156e-02 1.030415296555e-05 5.153552650452e+03
    3.600000000000e+05-2.179294824600e-07-1.171240448580e-02 2.086162567139e-07
    9.613656083478e-01 1.892187500000e+02-1.586458377491e+00-8.470709981929e-09
    4.653765276575e-10 1.000000000000e+00 2.131000000000e+03 0.000000000000e+00
    2.400000000000e+00 0.000000000000e+00-1.769512891769e-08 8.300000000000e+01
    3.528000000000e+05 4.000000000000e+00
 5 20 11 12  4  0  0.0-2.567050978541e-05-9.094947017729e-13 0.000000000000e+00
    7.900000000000e+01-2.196875000000e+01 5.153786104449e-09 2.159302758256e+00
   -1.270323991776e-06 6.089883972891e-03 3.758817911148e-06 5.153755710602e+03
    3.600000000000e+05-6.146728992462e-08 1.072780047789e+00-1.322478055954e-07
    9.538727584577e-01 3.054687500000e+02 8.925904457120e-01-8.540355740097e-09
   -4.607334771129e-11 1.000000000000e+00 2.131000000000e+03 0.000000000000e+00
    2.400000000000e+00 0.000000000000e+00-1.117587089539e-08 7.900000000000e+01
    3.528000000000e+05 4.000000000000e+00
12 20 11 12  4  0  0.0 4.153233021498e-05-5.115907697473e-12 0.000000000000e+00
    1.400000000000e+01-1.168750000000e+01 4.777699010341e-09-2.054884588477e+00
   -5.494803190231e-07 7.981033762917e-03 3.101304173470e-06 5.153596862793e+03
    3.600000000000e+05 9.872019290924e-08-1.963970826148e+00 3.725290298462e-08
    9.759381581188e-01 3.267187500000e+02 1.166163970702e+00-8.309274686072e-09
   -5.393081786361e-11 1.000000000000e+00 2.131000000000e+03 0.000000000000e+00
    2.400000000000e+00 0.000000000000e+00-1.257285475731e-08 1.400000000000e+01
    3.528000000000e+05 4.000000000000e+00
 7 20 11 12  4  0  0.0-4.125493578613e-04-7.730704965070e-12 0.000000000000e+00
    1.480000000000e+02 9.340625000000e+01 4.594834250433e-09-1.376419446126e+00
    4.915520548820e-06 1.422482146882e-02 9.311363101006e-06 5.153636537552e+03
    3.600000000000e+05 2.924352884293e-07-3.072343148544e+00 9.313225746155e-09
    9.528760533524e-01 1.913437500000e+02-2.359852338374e+00-8.082479524857e-09
    4.814486256963e-10 1.000000000000e+00 2.131000000000e+03 0.000000000000e+00
    2.400000000000e+00 0.000000000000e+00-1.117587089539e-08 1.480000000000e+02
    3.528000000000e+05 4.000000000000e+00
30 20 11 12  4  0  0.0-3.340449184179e-04-6.593836587854e-12 0.000000000000e+00
    5.000000000000e+00 1.005312500000e+02 4.986279127112e-09-1.368964892506e+00
    5.045905709267e-06 4.746513441205e-03 9.296461939812e-06 5.153573486328e+03
    3.600000000000e+05 5.587935447693e-08-3.052229894564e+00-5.587935447693e-08
    9.381350119917e-01 1.862812500000e+02-2.817867379784e+00-8.333918569731e-09
    4.507330605555e-10 1.000000000000e+00 2.131000000000e+03 0.000000000000e+00
    2.400000000000e+00 0.000000000000e+00 3.725290298462e-09 5.000000000000e+00
    3.528000000000e+05 4.000000000000e+00
25 20 11 12  4  0  0.0 2.066744491458e-05 6.480149750132e-12 0.000000000000e+00
    1.000000000000e+01-3.125000000000e-02 5.058424989419e-09-2.341987924489e+00
   -8.195638656616e-08 9.300472214818e-03 2.749264240265e-06 5.153702245712e+03
    3.600000000000e+05 1.229345798492e-07-2.035044701220e+00-3.725290298462e-08
    9.633091052566e-01 3.272187500000e+02 9.282285184322e-01-8.467138404587e-09
    3.214419607765e-11 1.000000000000e+00 2.131000000000e+03 0.000000000000e+00
    2.400000000000e+00 0.000000000000e+00 5.587935447693e-09 1.000000000000e+01
    3.528000000000e+05 4.000000000000e+00
16 20 11 12  4  0  0.0-2.352525480092e-04-5.343281372916e-12 0.000000000000e+00
    3.200000000000e+01-6.500000000000e+00 4.732697135832e-09 2.378105532978e+00
   -4.414469003677e-07 1.171176112257e-02 3.015622496605e-06 5.153595706940e+03
    3.600000000000e+05-1.601874828339e-07-1.945137828832e+00-1.415610313416e-07
    9.760906336814e-01 3.322500000000e+02 6.294634226953e-01-8.291059641628e-09
   -1.017899542459e-10 1.000000000000e+00 2.131000000000e+03 0.000000000000e+00
    2.400000000000e+00 0.000000000000e+00-1.071020960808e-08 3.200000000000e+01
    3.528000000000e+05 4.000000000000e+00
10 20 11 12  4  0  0.0-5.025318823755e-04-9.208633855451e-12 0.000000000000e+00
    3.300000000000e+01-2.162500000000e+01 4.794485423848e-09-2.694145419319e+00
   -1.143664121628e-06 6.113789742813e-03 3.939494490623e-06 5.153659713745e+03
    3.600000000000e+05-2.607703208923e-08 1.104026659873e+00-1.303851604462e-08
    9.668459510947e-01 3.074375000000e+02-2.658453350293e+00-8.312489105680e-09
    2.535819912792e-11 1.000000000000e+00 2.131000000000e+03 0.000000000000e+00
    2.400000000000e+00 0.000000000000e+00 2.328306436539e-09 3.300000000000e+01
    3.528000000000e+05 4.000000000000e+00
